IRIDIUM 112             
1 41925U 17003J   25227.89627553  .00000020  00000+0  18414-6 0  9990
2 41925  86.3964 215.8124 0002209  85.9508 274.1940 14.34217646449518
IRIDIUM 111             
1 41926U 17003K   25228.37196915  .00000032  00000+0  43169-5 0  9995
2 41926  86.3964 215.6771 0002229  91.8864 268.2587 14.34217544449639
IRIDIUM 113             
1 42803U 17039A   25227.86354896  .00000151  00000+0  46931-4 0  9997
2 42803  86.3930  89.8137 0002073  81.3112 278.8319 14.34219878427426
IRIDIUM 123             
1 42804U 17039B   25227.41665408  .00000002  00000+0 -63275-5 0  9990
2 42804  86.3982 121.4863 0001841  91.9693 268.1713 14.34217384426122
IRIDIUM 120             
1 42805U 17039C   25228.34559254  .00000087  00000+0  23932-4 0  9992
2 42805  86.3917  89.4336 0002284  93.7960 266.3497 14.34217595427481
IRIDIUM 115             
1 42806U 17039D   25228.34020076  .00000280  00000+0  77108-4 0  9997
2 42806  86.4455  89.5231 0001932 106.2865 253.8548 14.43281799430296
IRIDIUM 118             
1 42807U 17039E   25227.93674319  .00000187  00000+0  59776-4 0  9994
2 42807  86.3980 121.2686 0002199  80.7109 279.4335 14.34216872426192
IRIDIUM 117             
1 42808U 17039F   25227.95577434 -.00000002  00000+0 -76662-5 0  9999
2 42808  86.3981 121.2211 0001790  87.4692 272.6709 14.34217381426225
